{"type": "FeatureCollection", "features": [ {"type": "Feature", "properties": {"norad_id": 30466, "name": "FENGYUN 1C DEB", "group": "fengyun-1c-debris", "lat": 40.33197095710333, "lon": -153.17237060017348, "alt_km": 817.1659741064705, "timestamp": "2025-12-05T05:43:15.386092+00:00", "meta": {"OBJECT_NAME": "FENGYUN 1C DEB", "OBJECT_ID": "1999-025AGD", "EPOCH": "2025-12-04T14:35:09.492000", "MEAN_MOTION": 14.22463419, "ECCENTRICITY": 0.0117023, "INCLINATION": 98.656, "RA_OF_ASC_NODE": 18.7771, "ARG_OF_PERICENTER": 47.8909, "MEAN_ANOMALY": 102.2678, "EPHEMERIS_TYPE": 0, "CLASSIFICATION_TYPE": "U", "NORAD_CAT_ID": 30466, "ELEMENT_SET_NO": 999, "REV_AT_EPOCH": 97235, "BSTAR": 0.0026293, "MEAN_MOTION_DOT": 6.248e-05, "MEAN_MOTION_DDOT": 0}, "tle": {"line1": "1 30466U 99025AGD 25338.60774875  .00006248  00000+0  26293-2 0  9992", "line2": "2 30466  98.6560  18.7771 0117023  47.8909 102.2678 14.22463419972355"}}, "geometry": {"type": "Point", "coordinates": [-153.17237060017348, 40.33197095710333]}}, {"type": "Feature", "properties": {"norad_id": 30467, "name": "FENGYUN 1C DEB", "group": "fengyun-1c-debris", "lat": 68.32526027512841, "lon": -15.656249587026256, "alt_km": 818.4396225254723, "timestamp": "2025-12-05T05:43:15.386102+00:00", "meta": {"OBJECT_NAME": "FENGYUN 1C DEB", "OBJECT_ID": "1999-025AGE", "EPOCH": "2025-12-04T14:43:14.235744", "MEAN_MOTION": 14.17232261, "ECCENTRICITY": 0.0065304, "INCLINATION": 98.6799, "RA_OF_ASC_NODE": 6.3376, "ARG_OF_PERICENTER": 150.5016, "MEAN_ANOMALY": 333.28, "EPHEMERIS_TYPE": 0, "CLASSIFICATION_TYPE": "U", "NORAD_CAT_ID": 30467, "ELEMENT_SET_NO": 999, "REV_AT_EPOCH": 97062, "BSTAR": 0.0017549, "MEAN_MOTION_DOT": 3.576e-05, "MEAN_MOTION_DDOT": 0}, "tle": {"line1": "1 30467U 99025AGE 25338.61335921  .00003576  00000+0  17549-2 0  9994", "line2": "2 30467  98.6799   6.3376 0065304 150.5016 333.2800 14.17232261970623"}}, "geometry": {"type": "Point", "coordinates": [-15.656249587026256, 68.32526027512841]}}, {"type": "Feature", "properties": {"norad_id": 30468, "name": "FENGYUN 1C DEB", "group": "fengyun-1c-debris", "lat": -70.17274677095328, "lon": 86.49772622225662, "alt_km": 866.5590963875238, "timestamp": "2025-12-05T05:43:15.386112+00:00", "meta": {"OBJECT_NAME": "FENGYUN 1C DEB", "OBJECT_ID": "1999-025AGF", "EPOCH": "2025-12-04T04:57:36.822816", "MEAN_MOTION": 14.20626585, "ECCENTRICITY": 0.0072567, "INCLINATION": 98.9233, "RA_OF_ASC_NODE": 59.6238, "ARG_OF_PERICENTER": 64.7989, "MEAN_ANOMALY": 350.1864, "EPHEMERIS_TYPE": 0, "CLASSIFICATION_TYPE": "U", "NORAD_CAT_ID": 30468, "ELEMENT_SET_NO": 999, "REV_AT_EPOCH": 96689, "BSTAR": 0.0032022, "MEAN_MOTION_DOT": 7.039e-05, "MEAN_MOTION_DDOT": 0}, "tle": {"line1": "1 30468U 99025AGF 25338.20667619  .00007039  00000+0  32022-2 0  9993", "line2": "2 30468  98.9233  59.6238 0072567  64.7989 350.1864 14.20626585966894"}}, "geometry": {"type": "Point", "coordinates": [86.49772622225662, -70.17274677095328]}}, {"type": "Feature", "properties": {"norad_id": 30469, "name": "FENGYUN 1C DEB", "group": "fengyun-1c-debris", "lat": -28.972246193061203, "lon": 5.788387038040334, "alt_km": 802.0722464024557, "timestamp": "2025-12-05T05:43:15.386123+00:00", "meta": {"OBJECT_NAME": "FENGYUN 1C DEB", "OBJECT_ID": "1999-025AGG", "EPOCH": "2025-12-04T01:56:18.578112", "MEAN_MOTION": 13.96481287, "ECCENTRICITY": 0.01584854, "INCLINATION": 98.4786, "RA_OF_ASC_NODE": 189.4584, "ARG_OF_PERICENTER": 194.0242, "MEAN_ANOMALY": 318.1958, "EPHEMERIS_TYPE": 0, "CLASSIFICATION_TYPE": "U", "NORAD_CAT_ID": 30469, "ELEMENT_SET_NO": 999, "REV_AT_EPOCH": 95585, "BSTAR": 0.0012174843, "MEAN_MOTION_DOT": 1.831e-05, "MEAN_MOTION_DDOT": 0}, "tle": {"line1": "1 30469U 99025AGG 25338.08077058  .00001831  00000+0  12175-2 0  9993", "line2": "2 30469  98.4786 189.4584 0158485 194.0242 318.1958 13.96481287955854"}}, "geometry": {"type": "Point", "coordinates": [5.788387038040334, -28.972246193061203]}}, {"type": "Feature", "properties": {"norad_id": 30471, "name": "FENGYUN 1C DEB", "group": "fengyun-1c-debris", "lat": -19.70532139700138, "lon": -116.52831973101901, "alt_km": 836.3606874875231, "timestamp": "2025-12-05T05:43:15.386133+00:00", "meta": {"OBJECT_NAME": "FENGYUN 1C DEB", "OBJECT_ID": "1999-025AGJ", "EPOCH": "2025-12-04T05:14:52.350144", "MEAN_MOTION": 14.13538072, "ECCENTRICITY": 0.0081716, "INCLINATION": 99.055, "RA_OF_ASC_NODE": 65.7139, "ARG_OF_PERICENTER": 277.5031, "MEAN_ANOMALY": 137.0584, "EPHEMERIS_TYPE": 0, "CLASSIFICATION_TYPE": "U", "NORAD_CAT_ID": 30471, "ELEMENT_SET_NO": 999, "REV_AT_EPOCH": 96322, "BSTAR": 0.0035993, "MEAN_MOTION_DOT": 6.958e-05, "MEAN_MOTION_DDOT": 0}, "tle": {"line1": "1 30471U 99025AGJ 25338.21866146  .00006958  00000+0  35993-2 0  9993", "line2": "2 30471  99.0550  65.7139 0081716 277.5031 137.0584 14.13538072963228"}}, "geometry": {"type": "Point", "coordinates": [-116.52831973101901, -19.70532139700138]}}, {"type": "Feature", "properties": {"norad_id": 30472, "name": "FENGYUN 1C DEB", "group": "fengyun-1c-debris", "lat": -52.48326288405537, "lon": 91.54125905719452, "alt_km": 746.1082343464623, "timestamp": "2025-12-05T05:43:15.386144+00:00", "meta": {"OBJECT_NAME": "FENGYUN 1C DEB", "OBJECT_ID": "1999-025AGK", "EPOCH": "2025-12-04T07:09:20.902176", "MEAN_MOTION": 14.53516776, "ECCENTRICITY": 0.0038889, "INCLINATION": 98.6528, "RA_OF_ASC_NODE": 79.1311, "ARG_OF_PERICENTER": 105.4599, "MEAN_ANOMALY": 324.4021, "EPHEMERIS_TYPE": 0, "CLASSIFICATION_TYPE": "U", "NORAD_CAT_ID": 30472, "ELEMENT_SET_NO": 999, "REV_AT_EPOCH": 97918, "BSTAR": 0.0067103, "MEAN_MOTION_DOT": 0.00028342, "MEAN_MOTION_DDOT": 0}, "tle": {"line1": "1 30472U 99025AGK 25338.29815859  .00028342  00000+0  67103-2 0  9996", "line2": "2 30472  98.6528  79.1311 0038889 105.4599 324.4021 14.53516776979182"}}, "geometry": {"type": "Point", "coordinates": [91.54125905719452, -52.48326288405537]}}, {"type": "Feature", "properties": {"norad_id": 30474, "name": "FENGYUN 1C DEB", "group": "fengyun-1c-debris", "lat": -71.220472525943, "lon": -149.7082496565878, "alt_km": 785.2434713146395, "timestamp": "2025-12-05T05:43:15.386154+00:00", "meta": {"OBJECT_NAME": "FENGYUN 1C DEB", "OBJECT_ID": "1999-025AGM", "EPOCH": "2025-12-04T03:45:37.312704", "MEAN_MOTION": 14.37581344, "ECCENTRICITY": 0.00230908, "INCLINATION": 98.9297, "RA_OF_ASC_NODE": 56.7108, "ARG_OF_PERICENTER": 31.275, "MEAN_ANOMALY": 27.3497, "EPHEMERIS_TYPE": 0, "CLASSIFICATION_TYPE": "U", "NORAD_CAT_ID": 30474, "ELEMENT_SET_NO": 999, "REV_AT_EPOCH": 97270, "BSTAR": 0.0047859414, "MEAN_MOTION_DOT": 0.0001438, "MEAN_MOTION_DDOT": 0}, "tle": {"line1": "1 30474U 99025AGM 25338.15668186  .00014380  00000+0  47859-2 0  9995", "line2": "2 30474  98.9297  56.7108 0023090  31.2750  27.3497 14.37581344972700"}}, "geometry": {"type": "Point", "coordinates": [-149.7082496565878, -71.220472525943]}}, {"type": "Feature", "properties": {"norad_id": 30475, "name": "FENGYUN 1C DEB", "group": "fengyun-1c-debris", "lat": -11.260637113674704, "lon": -160.89732164146164, "alt_km": 860.1559125908516, "timestamp": "2025-12-05T05:43:15.386165+00:00", "meta": {"OBJECT_NAME": "FENGYUN 1C DEB", "OBJECT_ID": "1999-025AGN", "EPOCH": "2025-12-03T21:25:30.564768", "MEAN_MOTION": 14.15638603, "ECCENTRICITY": 0.00421023, "INCLINATION": 98.7885, "RA_OF_ASC_NODE": 19.5412, "ARG_OF_PERICENTER": 316.6135, "MEAN_ANOMALY": 221.0278, "EPHEMERIS_TYPE": 0, "CLASSIFICATION_TYPE": "U", "NORAD_CAT_ID": 30475, "ELEMENT_SET_NO": 999, "REV_AT_EPOCH": 96826, "BSTAR": 0.0012207767, "MEAN_MOTION_DOT": 2.368e-05, "MEAN_MOTION_DDOT": 0}, "tle": {"line1": "1 30475U 99025AGN 25337.89271487  .00002368  00000+0  12208-2 0  9993", "line2": "2 30475  98.7885  19.5412 0042102 316.6135 221.0278 14.15638603968262"}}, "geometry": {"type": "Point", "coordinates": [-160.89732164146164, -11.260637113674704]}}, {"type": "Feature", "properties": {"norad_id": 30476, "name": "FENGYUN 1C DEB", "group": "fengyun-1c-debris", "lat": 11.380299973290242, "lon": -161.95481674580336, "alt_km": 852.5424133244405, "timestamp": "2025-12-05T05:43:15.386188+00:00", "meta": {"OBJECT_NAME": "FENGYUN 1C DEB", "OBJECT_ID": "1999-025AGP", "EPOCH": "2025-12-04T02:08:45.239136", "MEAN_MOTION": 14.20829997, "ECCENTRICITY": 0.00447996, "INCLINATION": 99.1252, "RA_OF_ASC_NODE": 15.0055, "ARG_OF_PERICENTER": 324.7023, "MEAN_ANOMALY": 90.2179, "EPHEMERIS_TYPE": 0, "CLASSIFICATION_TYPE": "U", "NORAD_CAT_ID": 30476, "ELEMENT_SET_NO": 999, "REV_AT_EPOCH": 96722, "BSTAR": 0.0026996793, "MEAN_MOTION_DOT": 5.849e-05, "MEAN_MOTION_DDOT": 0}, "tle": {"line1": "1 30476U 99025AGP 25338.08941249  .00005849  00000+0  26997-2 0  9993", "line2": "2 30476  99.1252  15.0055 0044799 324.7023  90.2179 14.20829997967225"}}, "geometry": {"type": "Point", "coordinates": [-161.95481674580336, 11.380299973290242]}}, {"type": "Feature", "properties": {"norad_id": 30477, "name": "FENGYUN 1C DEB", "group": "fengyun-1c-debris", "lat": -80.18920611064291, "lon": 136.81858199133748, "alt_km": 874.3566439342057, "timestamp": "2025-12-05T05:43:15.386199+00:00", "meta": {"OBJECT_NAME": "FENGYUN 1C DEB", "OBJECT_ID": "1999-025AGQ", "EPOCH": "2025-12-03T21:45:23.531904", "MEAN_MOTION": 13.23770545, "ECCENTRICITY": 0.0431472, "INCLINATION": 99.4254, "RA_OF_ASC_NODE": 61.7592, "ARG_OF_PERICENTER": 298.2366, "MEAN_ANOMALY": 112.4586, "EPHEMERIS_TYPE": 0, "CLASSIFICATION_TYPE": "U", "NORAD_CAT_ID": 30477, "ELEMENT_SET_NO": 999, "REV_AT_EPOCH": 90602, "BSTAR": 0.0038132819, "MEAN_MOTION_DOT": 2.623e-05, "MEAN_MOTION_DDOT": 0}, "tle": {"line1": "1 30477U 99025AGQ 25337.90652236  .00002623  00000+0  38133-2 0  9991", "line2": "2 30477  99.4254  61.7592 0431472 298.2366 112.4586 13.23770545906024"}}, "geometry": {"type": "Point", "coordinates": [136.81858199133748, -80.18920611064291]}}]}